{"type": "FeatureCollection", "features": [ {"type": "Feature", "properties": {"norad_id": 33153, "name": "INTELSAT 25 (IS-25)", "group": "intelsat", "lat": 1.8305572686586826, "lon": 135.9848360769828, "alt_km": 35799.47322281504, "timestamp": "2025-12-23T05:02:11.691177+00:00", "meta": {"OBJECT_NAME": "INTELSAT 25 (IS-25)", "OBJECT_ID": "2008-034A", "EPOCH": "2025-12-22T18:09:03.279744", "MEAN_MOTION": 1.00272866, "ECCENTRICITY": 0.00048088, "INCLINATION": 2.2519, "RA_OF_ASC_NODE": 82.5437, "ARG_OF_PERICENTER": 186.4305, "MEAN_ANOMALY": 63.3431, "EPHEMERIS_TYPE": 0, "CLASSIFICATION_TYPE": "U", "NORAD_CAT_ID": 33153, "ELEMENT_SET_NO": 999, "REV_AT_EPOCH": 6392, "BSTAR": 0, "MEAN_MOTION_DOT": -2.04e-06, "MEAN_MOTION_DDOT": 0}, "tle": {"line1": "1 33153U 08034A   25356.75628796 -.00000204  00000+0  00000+0 0  9996", "line2": "2 33153   2.2519  82.5437 0004808 186.4305  63.3431  1.00272866 63924"}}, "geometry": {"type": "Point", "coordinates": [135.9848360769828, 1.8305572686586826]}}, {"type": "Feature", "properties": {"norad_id": 33376, "name": "GALAXY 19 (G-19)", "group": "intelsat", "lat": 0.030972969246819738, "lon": 70.55528578994584, "alt_km": 35795.98931352198, "timestamp": "2025-12-23T05:02:11.691189+00:00", "meta": {"OBJECT_NAME": "GALAXY 19 (G-19)", "OBJECT_ID": "2008-045A", "EPOCH": "2025-12-22T21:15:45.401760", "MEAN_MOTION": 1.00271025, "ECCENTRICITY": 0.00026076, "INCLINATION": 0.0467, "RA_OF_ASC_NODE": 265.8558, "ARG_OF_PERICENTER": 13.4684, "MEAN_ANOMALY": 34.2956, "EPHEMERIS_TYPE": 0, "CLASSIFICATION_TYPE": "U", "NORAD_CAT_ID": 33376, "ELEMENT_SET_NO": 999, "REV_AT_EPOCH": 6313, "BSTAR": 0, "MEAN_MOTION_DOT": -1.18e-06, "MEAN_MOTION_DDOT": 0}, "tle": {"line1": "1 33376U 08045A   25356.88594215 -.00000118  00000+0  00000+0 0  9991", "line2": "2 33376   0.0467 265.8558 0002607  13.4684  34.2956  1.00271025 63131"}}, "geometry": {"type": "Point", "coordinates": [70.55528578994584, 0.030972969246819738]}}, {"type": "Feature", "properties": {"norad_id": 35493, "name": "FM-5", "group": "intelsat", "lat": 0.024200396433611566, "lon": 81.39922401935127, "alt_km": 35785.23779396765, "timestamp": "2025-12-23T05:02:11.691201+00:00", "meta": {"OBJECT_NAME": "FM-5", "OBJECT_ID": "2009-034A", "EPOCH": "2025-12-22T10:07:05.157408", "MEAN_MOTION": 1.00271549, "ECCENTRICITY": 0.00010976, "INCLINATION": 0.0241, "RA_OF_ASC_NODE": 288.3712, "ARG_OF_PERICENTER": 231.211, "MEAN_ANOMALY": 357.2827, "EPHEMERIS_TYPE": 0, "CLASSIFICATION_TYPE": "U", "NORAD_CAT_ID": 35493, "ELEMENT_SET_NO": 999, "REV_AT_EPOCH": 4487, "BSTAR": 0, "MEAN_MOTION_DOT": -1.79e-06, "MEAN_MOTION_DDOT": 0}, "tle": {"line1": "1 35493U 09034A   25356.42158747 -.00000179  00000+0  00000+0 0  9995", "line2": "2 35493   0.0241 288.3712 0001097 231.2110 357.2827  1.00271549 44877"}}, "geometry": {"type": "Point", "coordinates": [81.39922401935127, 0.024200396433611566]}}, {"type": "Feature", "properties": {"norad_id": 36097, "name": "INTELSAT 14 (IS-14)", "group": "intelsat", "lat": 0.027927955562053703, "lon": 122.53244976104112, "alt_km": 35796.81753326525, "timestamp": "2025-12-23T05:02:11.691213+00:00", "meta": {"OBJECT_NAME": "INTELSAT 14 (IS-14)", "OBJECT_ID": "2009-064A", "EPOCH": "2025-12-22T20:12:35.983296", "MEAN_MOTION": 1.00269853, "ECCENTRICITY": 0.00025302, "INCLINATION": 0.0062, "RA_OF_ASC_NODE": 5.7681, "ARG_OF_PERICENTER": 278.2453, "MEAN_ANOMALY": 65.7765, "EPHEMERIS_TYPE": 0, "CLASSIFICATION_TYPE": "U", "NORAD_CAT_ID": 36097, "ELEMENT_SET_NO": 999, "REV_AT_EPOCH": 5883, "BSTAR": 0, "MEAN_MOTION_DOT": -2.52e-06, "MEAN_MOTION_DDOT": 0}, "tle": {"line1": "1 36097U 09064A   25356.84208314 -.00000252  00000+0  00000+0 0  9993", "line2": "2 36097   0.0062   5.7681 0002530 278.2453  65.7765  1.00269853 58837"}}, "geometry": {"type": "Point", "coordinates": [122.53244976104112, 0.027927955562053703]}}, {"type": "Feature", "properties": {"norad_id": 36106, "name": "INTELSAT 15 (IS-15)", "group": "intelsat", "lat": -0.03843341121099875, "lon": -107.30654790026121, "alt_km": 35778.140365951054, "timestamp": "2025-12-23T05:02:11.691225+00:00", "meta": {"OBJECT_NAME": "INTELSAT 15 (IS-15)", "OBJECT_ID": "2009-067A", "EPOCH": "2025-12-22T22:07:47.917632", "MEAN_MOTION": 1.00271269, "ECCENTRICITY": 0.00022302, "INCLINATION": 0.0177, "RA_OF_ASC_NODE": 8.1154, "ARG_OF_PERICENTER": 275.52, "MEAN_ANOMALY": 225.1959, "EPHEMERIS_TYPE": 0, "CLASSIFICATION_TYPE": "U", "NORAD_CAT_ID": 36106, "ELEMENT_SET_NO": 999, "REV_AT_EPOCH": 3946, "BSTAR": 0, "MEAN_MOTION_DOT": -1.64e-06, "MEAN_MOTION_DDOT": 0}, "tle": {"line1": "1 36106U 09067A   25356.92208238 -.00000164  00000+0  00000+0 0  9993", "line2": "2 36106   0.0177   8.1154 0002230 275.5200 225.1959  1.00271269 39463"}}, "geometry": {"type": "Point", "coordinates": [-107.30654790026121, -0.03843341121099875]}}, {"type": "Feature", "properties": {"norad_id": 36131, "name": "DIRECTV 12", "group": "intelsat", "lat": 0.006531053886257539, "lon": 64.8427604636704, "alt_km": 35785.90019890474, "timestamp": "2025-12-23T05:02:11.691236+00:00", "meta": {"OBJECT_NAME": "DIRECTV 12", "OBJECT_ID": "2009-075A", "EPOCH": "2025-12-22T14:23:17.397024", "MEAN_MOTION": 1.00272947, "ECCENTRICITY": 4.824e-05, "INCLINATION": 0.0135, "RA_OF_ASC_NODE": 97.4838, "ARG_OF_PERICENTER": 233.73, "MEAN_ANOMALY": 233.2998, "EPHEMERIS_TYPE": 0, "CLASSIFICATION_TYPE": "U", "NORAD_CAT_ID": 36131, "ELEMENT_SET_NO": 999, "REV_AT_EPOCH": 4478, "BSTAR": 0, "MEAN_MOTION_DOT": -8.2e-07, "MEAN_MOTION_DDOT": 0}, "tle": {"line1": "1 36131U 09075A   25356.59950691 -.00000082  00000+0  00000+0 0  9999", "line2": "2 36131   0.0135  97.4838 0000482 233.7300 233.2998  1.00272947 44787"}}, "geometry": {"type": "Point", "coordinates": [64.8427604636704, 0.006531053886257539]}}, {"type": "Feature", "properties": {"norad_id": 36397, "name": "INTELSAT 16 (IS-16)", "group": "intelsat", "lat": 0.028647777999339284, "lon": 91.34942333981729, "alt_km": 35794.250696625786, "timestamp": "2025-12-23T05:02:11.691248+00:00", "meta": {"OBJECT_NAME": "INTELSAT 16 (IS-16)", "OBJECT_ID": "2010-006A", "EPOCH": "2025-12-22T21:21:44.828352", "MEAN_MOTION": 1.00270502, "ECCENTRICITY": 0.00018372, "INCLINATION": 0.0137, "RA_OF_ASC_NODE": 321.663, "ARG_OF_PERICENTER": 311.1052, "MEAN_ANOMALY": 63.162, "EPHEMERIS_TYPE": 0, "CLASSIFICATION_TYPE": "U", "NORAD_CAT_ID": 36397, "ELEMENT_SET_NO": 999, "REV_AT_EPOCH": 5788, "BSTAR": 0, "MEAN_MOTION_DOT": -2.23e-06, "MEAN_MOTION_DDOT": 0}, "tle": {"line1": "1 36397U 10006A   25356.89010218 -.00000223  00000+0  00000+0 0  9991", "line2": "2 36397   0.0137 321.6630 0001837 311.1052  63.1620  1.00270502 57887"}}, "geometry": {"type": "Point", "coordinates": [91.34942333981729, 0.028647777999339284]}}, {"type": "Feature", "properties": {"norad_id": 37185, "name": "XM-5", "group": "intelsat", "lat": 0.05437052898274678, "lon": 52.334748522333406, "alt_km": 35787.0907236259, "timestamp": "2025-12-23T05:02:11.691260+00:00", "meta": {"OBJECT_NAME": "XM-5", "OBJECT_ID": "2010-053A", "EPOCH": "2025-12-22T10:47:31.225344", "MEAN_MOTION": 1.00272, "ECCENTRICITY": 0.00021803, "INCLINATION": 0.0677, "RA_OF_ASC_NODE": 270.2646, "ARG_OF_PERICENTER": 239.2198, "MEAN_ANOMALY": 348.4632, "EPHEMERIS_TYPE": 0, "CLASSIFICATION_TYPE": "U", "NORAD_CAT_ID": 37185, "ELEMENT_SET_NO": 999, "REV_AT_EPOCH": 5571, "BSTAR": 0, "MEAN_MOTION_DOT": -1e-08, "MEAN_MOTION_DDOT": 0}, "tle": {"line1": "1 37185U 10053A   25356.44966696 -.00000001  00000+0  00000+0 0  9994", "line2": "2 37185   0.0677 270.2646 0002180 239.2198 348.4632  1.00272000 55718"}}, "geometry": {"type": "Point", "coordinates": [52.334748522333406, 0.05437052898274678]}}, {"type": "Feature", "properties": {"norad_id": 37238, "name": "INTELSAT 17 (IS-17)", "group": "intelsat", "lat": -0.01556112948260616, "lon": -126.49012343492419, "alt_km": 35778.76686059992, "timestamp": "2025-12-23T05:02:11.691272+00:00", "meta": {"OBJECT_NAME": "INTELSAT 17 (IS-17)", "OBJECT_ID": "2010-065B", "EPOCH": "2025-12-22T22:02:18.444192", "MEAN_MOTION": 1.00271253, "ECCENTRICITY": 0.00026056, "INCLINATION": 0.0081, "RA_OF_ASC_NODE": 298.9752, "ARG_OF_PERICENTER": 342.1164, "MEAN_ANOMALY": 207.1885, "EPHEMERIS_TYPE": 0, "CLASSIFICATION_TYPE": "U", "NORAD_CAT_ID": 37238, "ELEMENT_SET_NO": 999, "REV_AT_EPOCH": 5148, "BSTAR": 0, "MEAN_MOTION_DOT": 2e-07, "MEAN_MOTION_DDOT": 0}, "tle": {"line1": "1 37238U 10065B   25356.91826903  .00000020  00000+0  00000+0 0  9994", "line2": "2 37238   0.0081 298.9752 0002605 342.1164 207.1885  1.00271253 51480"}}, "geometry": {"type": "Point", "coordinates": [-126.49012343492419, -0.01556112948260616]}}, {"type": "Feature", "properties": {"norad_id": 37392, "name": "INTELSAT 28 (IS-28)", "group": "intelsat", "lat": 1.0669794651695308, "lon": 135.79350590355085, "alt_km": 35798.75096468746, "timestamp": "2025-12-23T05:02:11.691283+00:00", "meta": {"OBJECT_NAME": "INTELSAT 28 (IS-28)", "OBJECT_ID": "2011-016A", "EPOCH": "2025-12-22T18:09:03.279744", "MEAN_MOTION": 1.0026908, "ECCENTRICITY": 0.00037376, "INCLINATION": 1.3489, "RA_OF_ASC_NODE": 84.9492, "ARG_OF_PERICENTER": 190.2075, "MEAN_ANOMALY": 56.9504, "EPHEMERIS_TYPE": 0, "CLASSIFICATION_TYPE": "U", "NORAD_CAT_ID": 37392, "ELEMENT_SET_NO": 999, "REV_AT_EPOCH": 5151, "BSTAR": 0, "MEAN_MOTION_DOT": -2.04e-06, "MEAN_MOTION_DDOT": 0}, "tle": {"line1": "1 37392U 11016A   25356.75628796 -.00000204  00000+0  00000+0 0  9999", "line2": "2 37392   1.3489  84.9492 0003737 190.2075  56.9504  1.00269080 51518"}}, "geometry": {"type": "Point", "coordinates": [135.79350590355085, 1.0669794651695308]}}]}